#aV2024 11  6  0  0  0.00000000     288 DD+AD WGS84 FIT  NGA
## 2339 259200.00000000   300.00000000 60620 0.0000000000000
+   31     2  3  4  5  6  7  8  9 10 11 12 13 14 15 16 17 18
+         19 20 21 22 23 24 25 26 27 28 29 30 31 32  0  0  0
+          0  0  0  0  0  0  0  0  0  0  0  0  0  0  0  0  0
+          0  0  0  0  0  0  0  0  0  0  0  0  0  0  0  0  0
+          0  0  0  0  0  0  0  0  0  0  0  0  0  0  0  0  0
++         2  2  2  2  2  2  2  2  2  2  2  2  2  2  2  2  2
++         2  2  2  2  2  2  2  2  2  2  2  2  2  2  0  0  0
++         0  0  0  0  0  0  0  0  0  0  0  0  0  0  0  0  0
++         0  0  0  0  0  0  0  0  0  0  0  0  0  0  0  0  0
++         0  0  0  0  0  0  0  0  0  0  0  0  0  0  0  0  0
%c cc cc ccc ccc cccc cccc cccc cccc ccccc ccccc ccccc ccccc
%c cc cc ccc ccc cccc cccc cccc cccc ccccc ccccc ccccc ccccc
%f  0.0000000  0.000000000  0.00000000000  0.000000000000000
%f  0.0000000  0.000000000  0.00000000000  0.000000000000000
%i    0    0    0    0      0      0      0      0         0
%i    0    0    0    0      0      0      0      0         0
/*      NGA, ST. LOUIS,MO.                                  
/*   EPHEMERIS COMPUTED FROM 2 DAYS OF DATA                 
/*   EPOCHA v9 SMOOTHER                                     
/*   G2296 IERS2010 SATIGS SATAPC                           
*  2024 11  6 19 55  0.00000000
P  2 -14253.667087 -13153.928573 -17831.219908   -320.444062                    
V  2  23496.410823    -68.544061 -17909.174015      0.084823                    
P  3 -12718.953798 -22736.761211   5291.668928    592.573134                    
V  3   -799.493565  -7095.702339 -31321.640144      0.105289                    
P  4  -7755.995017 -13720.729776  21370.948306    474.970598                    
V  4  17964.802173 -20314.871112  -6673.194123      0.065500                    
P  5   3876.370938  24316.124197   9695.543777   -192.180528                    
V  5  -7271.061029 -10499.811607  28771.691263     -0.011730                    
P  6 -21411.536956   6250.965286  14577.612561    -94.631306                    
V  6 -17840.989545  -4237.259547 -24398.498327     -0.287831                    
P  7 -25314.114566  -7433.098081   5257.484068    -21.815666                    
V  7   6248.864074  -1745.746640  30303.222832      0.025387                    
P  8   1517.219517 -21212.402882 -15746.704079    406.336267                    
V  8  13697.289161 -14754.998155  21794.851888      0.105846                    
P  9 -15371.054534  -4195.274863  21165.250188    431.968933                    
V  9  15698.851645 -22084.439096   6928.281941      0.169033                    
P 10  13523.967075  -5348.419497 -22002.526190   -185.968125                    
V 10  10622.489493  26343.613448   -203.952767     -0.141614                    
P 11  -8305.851744  13447.174486  21371.591438   -748.809619                    
V 11 -26453.208956  -5666.583032  -6788.341026     -0.019735                    
P 12   9067.920072  24933.324817   1385.537589   -550.316285                    
V 12  -1983.223542   2845.893000 -31684.642704     -0.025526                    
P 13 -11173.161393  21282.354983 -11263.708024    684.900480                    
V 13 -11681.680635   8061.312098  27615.104345      0.016628                    
P 14 -15883.507804   1327.822009 -21225.775453    534.137327                    
V 14  -9118.183366 -25510.704480   4987.624439      0.082133                    
P 15   1698.179119  21342.592140 -16145.699501    224.662867                    
V 15 -11615.356372  16061.831693  20837.769372      0.045146                    
P 16   2589.635404 -22614.814492  12955.043038   -135.177693                    
V 16   7543.996398  15675.537369  25630.026078      0.098446                    
P 17 -20844.212958  10861.208905 -12130.788848    568.535804                    
V 17   8983.608438 -13404.011256 -26342.204233     -0.141116                    
P 18  25848.896852   6069.052923   2695.598008   -659.942770                    
V 18  -3668.062058   1610.520759  31659.816595     -0.006657                    
P 19 -19945.575636  16793.531680  -3791.989918    559.650961                    
V 19   1127.736471  -5444.314561 -31652.224390      0.045251                    
P 20  -3849.506714  18637.952088  18663.156122    368.975377                    
V 20 -13700.817029 -19148.510140  16219.905219     -0.003370                    
P 21  -8372.459437 -14657.595221 -20355.639763     98.078816                    
V 21  26482.090600    815.315347 -10207.118843     -0.008712                    
P 22 -12115.212764  10411.585840 -20871.847037    -77.352611                    
V 22  -8447.806306 -26045.868263  -7639.324372     -0.030074                    
P 23  17169.559085   9286.530780 -18082.316222    357.733287                    
V 23   8055.342490  21459.814674  18410.631814      0.080027                    
P 24  11880.493628  14748.320158 -19231.629485   -481.650797                    
V 24 -23462.319855    358.655852 -14163.834406      0.019106                    
P 25  16599.392810  16615.526975  12305.197874    499.177231                    
V 25   3972.972951  15804.554740 -25704.695396     -0.002318                    
P 26   9554.911543 -14216.060290  20039.013819     35.156988                    
V 26  12984.041206  22612.319059  10151.878927     -0.130190                    
P 27  11145.051555 -22817.310665  -7276.702121    -34.743819                    
V 27   7839.278124  -5270.217873  30164.890899      0.000138                    
P 28  22645.980155  -6186.994799  12413.089388   -470.677483                    
V 28  15429.095952   4049.912397 -26093.096365     -0.120896                    
P 29  14163.712153   6413.598917  21508.559158   -565.756493                    
V 29 -18173.494514  20461.048974   5733.718291      0.028775                    
P 30 -25998.676435    710.495160  -5902.979576   -287.282248                    
V 30  -7117.561543  -4321.716438  29804.158638      0.077066                    
P 31  13907.293091 -11572.285616  19323.874020   -222.205037                    
V 31  24427.521570   5292.124772 -13868.054484      0.006243                    
P 32  19866.592403 -13738.326811 -10590.870352   -577.282032                    
V 32  -6364.688887  12566.705385 -27870.985960      0.050559                    
EOF
